OBJECT_NAME,OBJECT_ID,EPOCH,MEAN_MOTION,ECCENTRICITY,INCLINATION,RA_OF_ASC_NODE,ARG_OF_PERICENTER,MEAN_ANOMALY,EPHEMERIS_TYPE,CLASSIFICATION_TYPE,NORAD_CAT_ID,ELEMENT_SET_NO,REV_AT_EPOCH,BSTAR,MEAN_MOTION_DOT,MEAN_MOTION_DDOT
NOAA 18,2005-018A,2026-06-24T06:29:11.471424,14.13730325,.00151637,98.8113,254.8446,128.5347,231.7188,0,U,28654,999,8731,.36463913E-4,.25E-6,0
SJ-7,2005-024A,2026-06-24T01:28:30.042048,15.21632074,.00156216,97.7286,205.3498,14.9143,345.2550,0,U,28737,999,14907,.3051824E-3,.6842E-4,0
CUBESAT XI-V,2005-043F,2026-06-24T06:21:49.633920,14.72647893,.00141293,98.2991,331.0356,178.0583,182.0681,0,U,28895,999,10279,.19577932E-3,.1196E-4,0
CLOUDSAT,2006-016A,2026-06-24T05:13:30.155232,14.86406145,.00042342,98.3924,212.8979,320.9734,39.1174,0,U,29107,999,7555,.1035426E-3,.853E-5,0
CALIPSO,2006-016B,2026-06-24T07:28:04.389888,14.69361017,.00009428,98.4468,191.2176,97.6644,262.4668,0,U,29108,999,7410,.14282602E-3,.791E-5,0
HINODE (SOLAR-B),2006-041A,2026-06-23T23:57:53.998560,14.68630648,.00159428,98.0544,191.0507,266.1522,93.7861,0,U,29479,999,5587,.10043482E-3,.536E-5,0
METOP-A,2006-044A,2026-06-24T05:54:50.308704,14.75997152,.01746639,98.3338,282.1688,47.2067,26.5198,0,U,29499,999,2649,.14999757E-3,.1259E-4,0
SHIJIAN-6 02B (SJ-6 02B),2006-046B,2026-06-24T06:39:43.831296,15.01391082,.00154161,97.7161,204.2926,40.2589,319.9774,0,U,29506,999,7180,.73434662E-4,.888E-5,0
DMSP 5D-3 F17 (USA 191),2006-050A,2026-06-24T05:46:47.229888,14.14993619,.00109119,98.7378,181.6666,40.9984,319.2008,0,U,29522,999,1342,.22159858E-4,0,0
LAPAN-TUBSAT,2007-001A,2026-06-24T06:10:47.598240,14.85954378,.00124817,98.1349,174.6411,156.4611,203.7178,0,U,29709,999,5220,-.19245697E-4,-.226E-5,0
HAIYANG-1B,2007-010A,2026-06-24T04:57:42.756768,14.31028418,.00134834,98.3498,156.7798,175.2090,184.9225,0,U,31113,999,164,.4543811E-4,.78E-6,0
BEIDOU-2 M1,2007-011A,2026-06-24T03:29:33.776448,1.77349537,.0001799,50.9286,219.0468,333.5549,26.5136,0,U,31115,999,7627,0,.44E-6,0
CAPE-1,2007-012P,2026-06-24T04:56:10.404672,14.64892760,.00845875,98.4464,149.8879,49.9199,310.9380,0,U,31130,999,1938,.24839599E-3,.1344E-4,0
CBERS 2B,2007-042A,2026-06-24T02:30:08.787168,14.41479236,.00301385,98.3924,119.6331,315.8842,54.7951,0,U,32062,999,98568,.6762808E-4,.177E-5,0
COSMO-SKYMED 2,2007-059A,2026-06-24T07:36:41.862816,14.82160062,.00013374,97.8888,358.8116,89.8933,270.2433,0,U,32376,999,306,.47614421E-4,.327E-5,0
CARTOSAT-2A,2008-021A,2026-06-24T06:49:29.913600,14.79246122,.00133216,97.7631,223.7510,88.4858,271.7880,0,U,32783,999,97985,.39014454E-4,.24E-5,0
CUTE-1.7+APD II (CO-65),2008-021C,2026-06-24T05:01:11.932032,15.09511070,.00091377,97.8279,156.7737,17.8170,342.3376,0,U,32785,999,98625,.28053575E-3,.4434E-4,0
SEEDS II (CO-66),2008-021J,2026-06-24T06:01:30.867744,15.32959787,.00003051,97.7521,173.4867,266.0101,94.1105,0,U,32791,999,98837,.50931434E-3,.16147E-3,0
YUBILEINY (RS30),2008-025A,2026-06-24T06:15:51.194016,12.43179909,.00186282,82.5048,351.0390,297.6731,62.2459,0,U,32953,999,82057,.56238428E-3,.88E-6,0
FENGYUN 3A,2008-026A,2026-06-24T02:17:47.096736,14.19572310,.00098048,98.6884,115.7997,105.7515,254.4743,0,U,32958,999,93638,.39856081E-4,.41E-6,0
HUANJING 1A (HJ-1A),2008-041A,2026-06-24T07:31:36.740352,14.83999698,.00203954,97.6687,160.8763,112.7083,247.6290,0,U,33320,999,95946,.13490879E-3,.1075E-4,0
HUANJING 1B (HJ-1B),2008-041B,2026-06-24T06:51:44.862624,14.83328114,.00366999,97.6525,164.0004,157.6378,202.6446,0,U,33321,999,95946,.10499051E-3,.818E-5,0
SHIJIAN-6 03A (SJ-6 03A),2008-053A,2026-06-24T05:42:13.536288,15.17222857,.00109044,97.8410,208.8035,356.4104,3.7049,0,U,33408,999,96403,.25075876E-3,.492E-4,0
SHIJIAN-6 03B (SJ-6 03B),2008-053B,2026-06-24T06:48:27.481824,15.04315715,.00199609,97.8563,195.2929,21.0112,339.1929,0,U,33409,999,96381,.6736365E-4,.877E-5,0
CHUANGXIN 1-02 (CX-1-02),2008-056B,2026-06-24T07:03:02.401056,14.30153883,.00153268,98.6137,201.4899,117.0735,243.2014,0,U,33434,999,91963,-.30333737E-4,-.122E-5,0
STARS (KUKAI),2009-002G,2026-06-23T13:46:47.694432,14.95782350,.00091623,98.1542,122.1433,141.5230,218.6645,0,U,33498,999,93943,.22853371E-3,.2488E-4,0
KKS-1 (KISEKI),2009-002H,2026-06-24T03:18:53.224992,14.83139073,.00063585,98.1187,97.6905,268.3777,91.6707,0,U,33499,999,93722,.13745127E-3,.1065E-4,0
NOAA 19,2009-005A,2026-06-24T06:29:23.019648,14.13475263,.00139282,98.9518,246.1504,14.9350,345.2231,0,U,33591,999,89548,.33068502E-4,.17E-6,0
UK-DMC 2,2009-041C,2026-06-24T06:37:24.152736,14.76059201,.00011467,97.8843,310.0694,88.0438,272.0904,0,U,35683,999,90761,.1119668E-3,.722E-5,0
METEOR-M 1,2009-049A,2026-06-24T04:13:56.918208,14.23158176,.00012063,98.7387,137.5997,310.5590,49.5483,0,U,35865,999,87024,.44790276E-4,.57E-6,0
OCEANSAT-2,2009-051A,2026-06-24T06:38:22.367328,13.99662291,.00157821,98.2321,161.4208,214.7601,145.2535,0,U,35931,999,88032,-.12532584E-3,-.221E-5,0
SWISSCUBE,2009-051B,2026-06-24T00:14:56.767200,14.62492428,.00064478,98.4031,83.0175,180.0638,180.0563,0,U,35932,999,89015,.15858503E-3,.754E-5,0
BEESAT-1,2009-051C,2026-06-23T04:50:47.229792,14.61728503,.00045989,98.3960,81.8178,195.0342,165.0722,0,U,35933,999,89006,.13338749E-3,.616E-5,0
ITUPSAT1,2009-051E,2026-06-24T07:03:47.026656,14.60449650,.00066045,98.4043,82.1112,208.5040,151.5799,0,U,35935,999,88977,.13593293E-3,.61E-5,0
DMSP 5D-3 F18 (USA 210),2009-057A,2026-06-24T05:06:14.325984,14.14900436,.00100877,98.9040,155.9666,227.4595,132.5727,0,U,35951,999,86058,.14461939E-3,.235E-5,0
PROBA-2,2009-059B,2026-06-24T02:49:57.435168,14.54864932,.00119529,98.2453,358.3747,258.3567,101.6289,0,U,36037,999,88253,.48486936E-4,.163E-5,0
YAOGAN-7,2009-069A,2026-06-24T04:43:59.102976,14.78015897,.00251072,98.0066,61.0207,19.8938,340.3246,0,U,36110,999,89066,.60501707E-4,.386E-5,0
XIWANG-1 (HOPE-1),2009-072B,2026-06-24T05:39:33.247008,13.16439735,.00069772,100.4025,128.9553,214.1465,145.9200,0,U,36122,999,79393,.57303826E-3,.174E-5,0
RADUGA-1M 2,2010-002A,2026-06-24T03:41:24.488160,0.98965650,.00054516,3.6396,78.7776,268.8612,256.0554,0,U,36358,999,5009,0,-.43E-6,0
COSMOS 2463,2010-017A,2026-06-24T04:37:20.029152,13.71666039,.00375597,82.9598,244.5591,110.0835,309.9011,0,U,36519,999,80889,.17030638E-4,.31E-6,0
CARTOSAT-2B,2010-035A,2026-06-24T07:25:55.183872,14.78669582,.0011829,97.9951,225.8143,160.9098,199.2559,0,U,36795,999,86090,.10959765E-3,.752E-5,0
AISSAT 1,2010-035C,2026-06-24T07:02:42.147168,14.97390468,.00101002,98.0922,74.7883,40.1511,320.0455,0,U,36797,999,86528,.11633869E-3,.129E-4,0
TISAT 1,2010-035E,2026-06-23T14:01:10.782912,15.31915093,.00022671,98.0701,121.7012,156.7166,203.4177,0,U,36799,999,86868,.52704046E-3,.16171E-3,0
YAOGAN-10,2010-038A,2026-06-24T08:20:42.690912,14.85366610,.00016631,97.8978,198.6949,85.7455,285.0655,0,U,36834,999,85827,.16699695E-3,.1383E-4,0
SHIJIAN-6 04B (SJ-6 04B),2010-051B,2026-06-24T07:08:17.067264,14.99332878,.00071898,97.8704,180.7813,289.9209,70.1239,0,U,37180,999,85674,.11137749E-3,.13E-4,0
FENGYUN 3B,2010-059A,2026-06-24T07:27:55.071648,14.14841469,.00223222,98.9619,221.3560,163.7705,288.5796,0,U,37214,999,80843,-.17118991E-3,-.376E-5,0
COSMO-SKYMED 4,2010-060A,2026-06-24T06:17:44.059200,14.82156828,.00014139,97.8894,358.7593,86.3885,273.7489,0,U,37216,999,84561,.28613396E-4,.176E-5,0
O/OREOS (USA 219),2010-062C,2026-06-24T02:15:18.907776,14.93768885,.00128137,71.9702,64.6944,48.3372,311.8893,0,U,37224,999,11767,.17007597E-3,.1743E-4,0
ELEKTRO-L 1 (GOMS 2),2011-001A,2026-06-24T05:15:23.631264,1.00157629,.00044963,9.7020,54.4361,29.8578,152.4960,0,U,37344,999,5655,0,-.21E-6,0
RESOURCESAT-2,2011-015A,2026-06-24T06:26:00.516192,14.21601279,.00104173,98.7641,242.6610,232.9959,127.0265,0,U,37387,999,78718,.51016209E-4,.68E-6,0
YOUTHSAT,2011-015B,2026-06-24T03:57:38.782944,14.25632667,.00137505,98.3684,148.9045,326.0546,44.9366,0,U,37388,999,78863,.75411587E-4,.137E-5,0
APRIZESAT 6,2011-044F,2026-06-23T17:05:00.714048,14.76924027,.00443801,98.2358,85.3444,65.7980,320.0108,0,U,37793,999,79811,.87602025E-4,.57E-5,0
JUGNU,2011-058B,2026-06-23T22:46:54.346368,14.13778314,.00185331,19.9603,267.3482,150.5150,4.5959,0,U,37839,999,75998,.62833446E-4,.388E-5,0
SRMSAT,2011-058D,2026-06-24T05:42:03.366144,14.11576866,.00117077,19.9735,16.7943,281.6878,234.4486,0,U,37841,999,75881,.51087175E-4,.359E-5,0
SUOMI NPP,2011-061A,2026-06-24T05:57:22.293216,14.19518714,.00011371,98.7954,116.0760,347.2181,12.8966,0,U,37849,999,75944,.41921842E-4,.44E-6,0
YAOGAN-12,2011-066B,2026-06-24T05:07:36.425856,15.26677588,.00095133,97.1146,213.4518,189.1015,171.0054,0,U,37875,999,81311,.17350169E-3,.4489E-4,0
BEIDOU-2 M4,2012-018B,2026-06-21T10:00:00.201600,1.86229230,.00113671,55.6541,303.9461,274.9349,84.9285,0,U,38251,999,9602,0,-.98E-6,0
ARIRANG-3 (KOMPSAT-3),2012-025B,2026-06-24T06:52:19.826112,14.62211479,.00068105,98.1173,132.6238,91.6048,268.5933,0,U,38338,999,75238,.78052173E-4,.347E-5,0
HORYU-2,2012-025D,2026-06-24T02:01:04.168128,14.91103217,.00087343,98.2179,308.3029,152.8603,207.3072,0,U,38340,999,74975,.24327723E-3,.2351E-4,0
CSSWE,2012-048D,2026-06-24T02:10:11.826624,15.44762653,.00460098,64.6631,70.1035,171.7120,188.4789,0,U,38761,999,11746,.51908466E-3,.25234E-3,0
CP5,2012-048F,2026-06-24T04:51:21.752640,15.27859734,.00774353,64.6436,129.4018,173.9797,186.2282,0,U,38763,999,11783,.30563626E-3,.8901E-4,0
METOP-B,2012-049A,2026-06-24T07:10:44.154624,14.21441005,.00017838,98.6501,226.6564,359.1090,1.0084,0,U,38771,999,71427,.52262534E-4,.71E-6,0
SJ-9A,2012-056A,2026-06-24T05:41:36.149280,14.85489622,.00242607,97.6712,146.9338,232.0754,127.8269,0,U,38860,999,70063,.99724099E-4,.812E-5,0
COSMOS 2484 (RODNIK-S 6),2013-001C,2026-06-24T07:26:23.918784,12.42939181,.00265846,82.5010,217.4645,21.3435,338.8747,0,U,39059,999,60944,-.5913326E-4,.2E-7,0
SARAL,2013-009A,2026-06-24T05:36:11.780352,14.32857446,.00006422,98.5559,1.7113,250.1647,109.9468,0,U,39086,999,69661,.42791526E-4,.73E-6,0
